NORAD_CAT_ID,OBJECT_NAME,OBJECT_TYPE,EPOCH,MEAN_MOTION,ECCENTRICITY,INCLINATION,RA_OF_ASC_NODE,ARG_OF_PERICENTER,MEAN_ANOMALY,BSTAR,MEAN_MOTION_DOT,MEAN_MOTION_DDOT,TLE_LINE0,TLE_LINE1,TLE_LINE2,SEMIMAJOR_AXIS,PERIOD,APOGEE,PERIGEE,DECAYED
54085.0,STARLINK-5166,PAYLOAD,2022-12-31 10:53:36,15.08838515,0.000166,53.2164,160.5999,99.0665,261.0515,-0.00010947,-2.03e-05,0.0,0 STARLINK-5166,1 54085U 22136AL  22365.45389371 -.00002030  00000-0 -10947-3 0  9995,2 54085  53.2164 160.5999 0001660  99.0665 261.0515 15.08838515 11222,6917.885,95.438,540.898,538.602,0.0
54085.0,STARLINK-5166,PAYLOAD,2022-12-31 17:15:09,15.08835675,0.0001498,53.2165,159.4107,101.7866,258.3294,-0.00012255,-2.238e-05,0.0,0 STARLINK-5166,1 54085U 22136AL  22365.71885572 -.00002238  00000-0 -12255-3 0  9992,2 54085  53.2165 159.4107 0001498 101.7866 258.3294 15.08835675 11265,6917.894,95.438,540.795,538.722,0.0
54085.0,STARLINK-5166,PAYLOAD,2023-01-01 13:55:09,15.08839576,0.0001347,53.2161,155.5439,99.3199,260.7945,5.793699999999999e-07,-2.79e-06,0.0,0 STARLINK-5166,1 54085U 22136AL  23001.57996917 -.00000279  00000-0  57937-6 0  9991,2 54085  53.2161 155.5439 0001347  99.3199 260.7945 15.08839576 11860,6917.882,95.438,540.679,538.815,0.0
54085.0,STARLINK-5166,PAYLOAD,2023-01-01 17:05:55,15.08843056,0.0001323,53.2159,154.9495,98.3816,261.7326,3.0054e-05,1.9e-06,0.0,0 STARLINK-5166,1 54085U 22136AL  23001.71244612  .00000190  00000-0  30054-4 0  9995,2 54085  53.2159 154.9495 0001323  98.3816 261.7326 15.08843056 11414,6917.871,95.437,540.651,538.821,0.0
54085.0,STARLINK-5166,PAYLOAD,2023-01-02 12:10:33,15.08827861,0.0001293,53.2161,151.3814,92.5472,267.5668,7.7476e-05,9.45e-06,0.0,0 STARLINK-5166,1 54085U 22136AL  23002.50733701  .00000945  00000-0  77476-4 0  9992,2 54085  53.2161 151.3814 0001293  92.5472 267.5668 15.08827861 12008,6917.917,95.438,540.677,538.888,0.0
54085.0,STARLINK-5166,PAYLOAD,2023-01-02 16:56:43,15.08832961,0.0001286,53.2158,150.4898,95.8963,264.2176,0.00011459,1.536e-05,0.0,0 STARLINK-5166,1 54085U 22136AL  23002.70605375  .00001536  00000-0  11459-3 0  9994,2 54085  53.2158 150.4898 0001286  95.8963 264.2176 15.08832961 11564,6917.901999999999,95.438,540.6569999999998,538.877,0.0
54085.0,STARLINK-5166,PAYLOAD,2023-01-03 02:29:01,15.0883616,0.0001264,53.2161,148.70600000000005,96.0717,264.0419,6.9372e-05,8.16e-06,0.0,0 STARLINK-5166,1 54085U 22136AL  23003.10349433  .00000816  00000-0  69372-4 0  9997,2 54085  53.2161 148.7060 0001264  96.0717 264.0419 15.08836160 12097,6917.892,95.438,540.632,538.883,0.0
54085.0,STARLINK-5166,PAYLOAD,2023-01-03 12:01:21,15.08846123,0.0001207,53.2159,146.9217,90.5207,269.5924,-0.00018157,-3.177e-05,0.0,0 STARLINK-5166,1 54085U 22136AL  23003.50093991 -.00003177  00000-0 -18157-3 0  9995,2 54085  53.2159 146.9217 0001207  90.5207 269.5924 15.08846123 11683,6917.861999999999,95.437,540.562,538.8919999999998,0.0
54085.0,STARLINK-5166,PAYLOAD,2023-01-04 08:41:21,15.08840211,0.0001250999999999,53.2161,143.0557,94.6047,265.5088,9.9896e-05,1.302e-05,0.0,0 STARLINK-5166,1 54085U 22136AL  23004.36205360  .00001302  00000-0  99896-4 0  9991,2 54085  53.2161 143.0557 0001251  94.6047 265.5088 15.08840211 12283,6917.88,95.438,540.61,538.879,0.0
54085.0,STARLINK-5166,PAYLOAD,2023-01-04 15:02:53,15.08846545,0.0001264,53.2164,141.8661,93.3761,266.7375,8.8735e-05,1.125e-05,0.0,0 STARLINK-5166,1 54085U 22136AL  23004.62700984  .00001125  00000-0  88735-4 0  9995,2 54085  53.2164 141.8661 0001264  93.3761 266.7375 15.08846545 11851,6917.86,95.437,540.6,538.851,0.0
54085.0,STARLINK-5166,PAYLOAD,2023-01-04 16:38:16,15.08849532,0.000126,53.2165,141.5687,90.919,269.1947,0.00011222,1.499e-05,0.0,0 STARLINK-5166,1 54085U 22136AL  23004.69324719  .00001499  00000-0  11222-3 0  9990,2 54085  53.2165 141.5687 0001260  90.9190 269.1947 15.08849532 12337,6917.851,95.437,540.5880000000002,538.845,0.0
54085.0,STARLINK-5166,PAYLOAD,2023-01-05 02:10:35,15.08842598,0.0001431999999999,53.2179,139.7863,80.5144,279.6009,7.2966e-05,8.74e-06,0.0,0 STARLINK-5166,1 54085U 22136AL  23005.09069345  .00000874  00000-0  72966-4 0  9995,2 54085  53.2179 139.7863 0001432  80.5144 279.6009 15.08842598 12398,6917.871999999999,95.437,540.7280000000002,538.747,0.0
54085.0,STARLINK-5166,PAYLOAD,2023-01-05 14:53:41,15.08836605,0.0001257,53.2164,137.4048,85.7899,274.3237,6.9943e-05,8.25e-06,0.0,0 STARLINK-5166,1 54085U 22136AL  23005.62061631  .00000825  00000-0  69943-4 0  9991,2 54085  53.2164 137.4048 0001257  85.7899 274.3237 15.08836605 12006,6917.891,95.438,540.625,538.886,0.0
54085.0,STARLINK-5166,PAYLOAD,2023-01-05 18:04:27,15.08843444,0.0001261,53.2165,136.8087,95.4776,264.6359,6.2408e-05,7.06e-06,0.0,0 STARLINK-5166,1 54085U 22136AL  23005.75309151  .00000706  00000-0  62408-4 0  9994,2 54085  53.2165 136.8087 0001261  95.4776 264.6359 15.08843444 12028,6917.87,95.437,540.607,538.863,0.0
54085.0,STARLINK-5166,PAYLOAD,2023-01-06 11:33:40,15.08854269,0.000116,53.2175,133.5375,97.3799,262.7325,2.1174e-05,4.9e-07,0.0,0 STARLINK-5166,1 54085U 22136AL  23006.48172369  .00000049  00000-0  21174-4 0  9999,2 54085  53.2175 133.5375 0001160  97.3799 262.7325 15.08854269 12600,6917.837,95.437,540.504,538.899,0.0
54085.0,STARLINK-5166,PAYLOAD,2023-01-07 01:52:09,15.08852812,0.0001245,53.2174,130.8635,70.0458,290.0669,-1.0814e-05,-4.6e-06,0.0,0 STARLINK-5166,1 54085U 22136AL  23007.07788226 -.00000460  00000-0 -10814-4 0  9998,2 54085  53.2174 130.8635 0001245  70.0458 290.0669 15.08852812 12227,6917.840999999999,95.437,540.567,538.845,0.0
54085.0,STARLINK-5166,PAYLOAD,2023-01-07 08:13:43,15.08824079,0.0001309,53.2175,129.6713,100.9994,259.1146,-5.3267e-05,-1.135e-05,0.0,0 STARLINK-5166,1 54085U 22136AL  23007.34286279 -.00001135  00000-0 -53267-4 0  9998,2 54085  53.2175 129.6713 0001309 100.9994 259.1146 15.08824079 12736,6917.929,95.439,540.7,538.888,0.0
54085.0,STARLINK-5166,PAYLOAD,2023-01-07 14:35:15,15.08825277,0.0001071,53.2163,128.486,87.0911,273.0204,-3.5338e-05,-8.5e-06,0.0,0 STARLINK-5166,1 54085U 22136AL  23007.60782338 -.00000850  00000-0 -35338-4 0  9996,2 54085  53.2163 128.4860 0001071  87.0911 273.0204 15.08825277 12307,6917.925,95.438,540.531,539.049,0.0
54085.0,STARLINK-5166,PAYLOAD,2023-01-08 14:26:02,15.08845408,0.0001224,53.216,124.0253,85.3299,274.7833,4.5513e-05,4.37e-06,0.0,0 STARLINK-5166,1 54085U 22136AL  23008.60141287  .00000437  00000-0  45513-4 0  9994,2 54085  53.2160 124.0253 0001224  85.3299 274.7833 15.08845408 12924,6917.864000000001,95.437,540.576,538.882,0.0
54085.0,STARLINK-5166,PAYLOAD,2023-01-09 14:16:49,15.08838931,0.0001230999999999,53.2158,119.5656,96.6813,263.4319,0.00027854,4.148e-05,0.0,0 STARLINK-5166,1 54085U 22136AL  23009.59501672  .00004148  00000-0  27854-3 0  9991,2 54085  53.2158 119.5656 0001231  96.6813 263.4319 15.08838931 12604,6917.884,95.438,540.6,538.8969999999998,0.0
54085.0,STARLINK-5166,PAYLOAD,2023-01-10 14:07:36,15.08840662,8.690000000000001e-05,53.2168,115.1047,93.8525,266.2566,3.0408e-05,1.96e-06,0.0,0 STARLINK-5166,1 54085U 22136AL  23010.58862125  .00000196  00000-0  30408-4 0  9994,2 54085  53.2168 115.1047 0000869  93.8525 266.2566 15.08840662 13224,6917.8780000000015,95.438,540.345,539.1419999999998,0.0
54085.0,STARLINK-5166,PAYLOAD,2023-01-11 12:23:00,15.08843704,8.62e-05,53.2172,110.9414,93.7311,266.378,2.2438e-05,6.9e-07,0.0,0 STARLINK-5166,1 54085U 22136AL  23011.51598100  .00000069  00000-0  22438-4 0  9990,2 54085  53.2172 110.9414 0000862  93.7311 266.3780 15.08843704 12896,6917.8690000000015,95.437,540.33,539.138,0.0
54085.0,STARLINK-5166,PAYLOAD,2023-01-11 23:30:42,15.08844088,8.26e-05,53.2175,108.859,100.3273,259.7812,0.00013107,1.799e-05,0.0,0 STARLINK-5166,1 54085U 22136AL  23011.97965766  .00001799  00000-0  13107-3 0  9999,2 54085  53.2175 108.8590 0000826 100.3273 259.7812 15.08844088 13431,6917.868,95.437,540.304,539.161,0.0
54085.0,STARLINK-5166,PAYLOAD,2023-01-12 15:24:33,15.08842796,0.0001055,53.2172,105.8859,96.3434,263.7678,9.2834e-05,1.19e-05,0.0,0 STARLINK-5166,1 54085U 22136AL  23012.64205952  .00001190  00000-0  92834-4 0  9998,2 54085  53.2172 105.8859 0001055  96.3434 263.7678 15.08842796 13069,6917.871999999999,95.437,540.467,539.007,0.0
54085.0,STARLINK-5166,PAYLOAD,2023-01-13 12:04:35,15.08838586,7.609999999999999e-05,53.2178,102.0197,110.1992,249.9082,4.7195e-05,4.64e-06,0.0,0 STARLINK-5166,1 54085U 22136AL  23013.50318385  .00000464  00000-0  47195-4 0  9992,2 54085  53.2178 102.0197 0000761 110.1992 249.9082 15.08838586 13669,6917.885,95.438,540.276,539.2230000000001,0.0
54085.0,STARLINK-5166,PAYLOAD,2023-01-14 05:33:49,15.08829786,7.08e-05,53.2185,98.7496,117.3293,242.7771,1.8401e-05,5e-08,0.0,0 STARLINK-5166,1 54085U 22136AL  23014.23182867  .00000005  00000-0  18401-4 0  9996,2 54085  53.2185  98.7496 0000708 117.3293 242.7771 15.08829786 13774,6917.911999999999,95.438,540.266,539.2869999999999,0.0
54085.0,STARLINK-5166,PAYLOAD,2023-01-14 11:55:20,15.0885351,8.149999999999999e-05,53.2187,97.5598,112.4673,247.6405,0.00021379,3.118e-05,0.0,0 STARLINK-5166,1 54085U 22136AL  23014.49676910  .00003118  00000-0  21379-3 0  9996,2 54085  53.2187  97.5598 0000815 112.4673 247.6405 15.08853510 13818,6917.839,95.437,540.268,539.14,0.0
54085.0,STARLINK-5166,PAYLOAD,2023-01-15 05:24:37,15.0883314,0.0001007,53.2179,94.2887,99.8253,260.2853,5.457e-05,5.81e-06,0.0,0 STARLINK-5166,1 54085U 22136AL  23015.22542875  .00000581  00000-0  54570-4 0  9991,2 54085  53.2179  94.2887 0001007  99.8253 260.2853 15.08833140 13927,6917.901,95.438,540.4630000000001,539.07,0.0
54085.0,STARLINK-5166,PAYLOAD,2023-01-15 11:46:09,15.08838121,8.690000000000001e-05,53.2168,93.1018,80.7081,279.4009,0.00010301,1.352e-05,0.0,0 STARLINK-5166,1 54085U 22136AL  23015.49038582  .00001352  00000-0  10301-3 0  9995,2 54085  53.2168  93.1018 0000869  80.7081 279.4009 15.08838121 13493,6917.886,95.438,540.352,539.15,0.0
